{
"type": "FeatureCollection",
"name": "east_asia_coastlines",
"crs": { "type": "name", "properties": { "name": "urn:ogc:def:crs:OGC:1.3:CRS84" } },
"features": [
{ "type": "Feature", "properties": { "ADMIN": "Thailand" }, "geometry": { "type": "Polygon", "coordinates": [ [ [ 105.218776890078885, 14.273211778210694 ], [ 104.281418084736615, 14.416743068901367 ], [ 102.988422072361629, 14.225721136934467 ], [ 102.348099399833018, 13.394247341358223 ], [ 102.584932489026698, 12.186594956913282 ], [ 101.687157830819956, 12.645740057826572 ], [ 100.831809523524868, 12.627084865769206 ], [ 100.978467238369205, 13.412721665902566 ], [ 100.097797479251113, 13.406856390837433 ], [ 100.018732537844556, 12.307001044153354 ], [ 99.47892052612363, 10.846366685423547 ], [ 99.153772414143162, 9.963061428258555 ], [ 99.222398716226763, 9.239255479362427 ], [ 99.873831821698133, 9.20786204674512 ], [ 100.279646844486223, 8.295152899606052 ], [ 100.459274123132758, 7.429572658717177 ], [ 101.017327915452725, 6.856868597842478 ], [ 101.62307905477806, 6.74062246340192 ], [ 102.141186964936381, 6.221636053894628 ], [ 101.814281854257985, 5.810808417174242 ], [ 101.154218784593866, 5.691384182147715 ], [ 101.075515578213356, 6.204867051615921 ], [ 100.259596388756961, 6.642824815289543 ], [ 100.085756870527106, 6.464489447450291 ], [ 99.690690545655755, 6.848212795433597 ], [ 99.519641554769635, 7.34345388430276 ], [ 98.988252801512303, 7.907993068875328 ], [ 98.503786248775995, 8.382305202666288 ], [ 98.339661899817003, 7.794511623562386 ], [ 98.150009393305822, 8.350007432483878 ], [ 98.259150018306258, 8.973922837759801 ], [ 98.553550653073046, 9.932959906448545 ], [ 99.038120558673981, 10.960545762572437 ], [ 99.587286004639722, 11.892762762901697 ], [ 99.196353794351666, 12.80474843998867 ], [ 99.212011753336085, 13.269293728076464 ], [ 99.097755161538757, 13.827502549693278 ], [ 98.430819126379873, 14.622027696180837 ], [ 98.192074009191401, 15.123702500870351 ], [ 98.537375929765716, 15.308497422746084 ], [ 98.903348423256759, 16.177824204976119 ], [ 98.49376102091135, 16.837835598207931 ], [ 97.859122755934862, 17.567946071843664 ], [ 97.375896437573545, 18.445437730375815 ], [ 97.797782830804408, 18.627080389881755 ], [ 98.25372399291561, 19.708203029860044 ], [ 98.959675734454876, 19.752980658440947 ], [ 99.543309360759309, 20.186597601802063 ], [ 100.115987583417848, 20.417849636308187 ], [ 100.548881056726884, 20.109237982661128 ], [ 100.606293573003157, 19.508344427971224 ], [ 101.282014601651696, 19.462584947176765 ], [ 101.035931431077771, 18.408928330961615 ], [ 101.059547560635167, 17.51249725999449 ], [ 102.113591750092482, 18.109101670804165 ], [ 102.413004998791621, 17.932781683824288 ], [ 102.998705682387708, 17.961694647691601 ], [ 103.20019209189374, 18.309632066312773 ], [ 103.956476678485302, 18.240954087796879 ], [ 104.716947056092494, 17.428858954330082 ], [ 104.779320509868796, 16.441864935771449 ], [ 105.589038527450157, 15.570316066952858 ], [ 105.544338413517693, 14.723933620660418 ], [ 105.218776890078885, 14.273211778210694 ] ] ] } },
{ "type": "Feature", "properties": { "ADMIN": "Laos" }, "geometry": { "type": "Polygon", "coordinates": [ [ [ 107.382727492301086, 14.202440904186972 ], [ 106.496373325630884, 14.570583807834282 ], [ 106.043946160915525, 13.881091009979956 ], [ 105.218776890078885, 14.273211778210694 ], [ 105.544338413517693, 14.723933620660418 ], [ 105.589038527450157, 15.570316066952858 ], [ 104.779320509868796, 16.441864935771449 ], [ 104.716947056092494, 17.428858954330082 ], [ 103.956476678485302, 18.240954087796879 ], [ 103.20019209189374, 18.309632066312773 ], [ 102.998705682387708, 17.961694647691601 ], [ 102.413004998791621, 17.932781683824288 ], [ 102.113591750092482, 18.109101670804165 ], [ 101.059547560635167, 17.51249725999449 ], [ 101.035931431077771, 18.408928330961615 ], [ 101.282014601651696, 19.462584947176765 ], [ 100.606293573003157, 19.508344427971224 ], [ 100.548881056726884, 20.109237982661128 ], [ 100.115987583417848, 20.417849636308187 ], [ 100.329101190189533, 20.786121731036232 ], [ 101.180005324307544, 21.436572984294028 ], [ 101.270025669359967, 21.201651923095184 ], [ 101.803119744882935, 21.174366766845068 ], [ 101.652017856861519, 22.318198757409547 ], [ 102.170435825613581, 22.464753119389304 ], [ 102.754896274834664, 21.675137233969465 ], [ 103.203861118586445, 20.766562201413748 ], [ 104.435000441508052, 20.758733221921531 ], [ 104.822573683697101, 19.886641750563882 ], [ 104.183387892678937, 19.624668077060221 ], [ 103.896532017026715, 19.265180975821806 ], [ 105.094598423281525, 18.66697459561108 ], [ 105.925762160264028, 17.485315456608959 ], [ 106.556007928495688, 16.604283962464805 ], [ 107.312705926545604, 15.908538316303179 ], [ 107.564525181103903, 15.202173163305559 ], [ 107.382727492301086, 14.202440904186972 ] ] ] } },
{ "type": "Feature", "properties": { "ADMIN": "Vietnam" }, "geometry": { "type": "Polygon", "coordinates": [ [ [ 104.334334751403475, 10.48654368737523 ], [ 105.199914992292349, 10.889309800658097 ], [ 106.249670037869464, 10.961811835163587 ], [ 105.81052371625313, 11.567614650921229 ], [ 107.49140302941089, 12.337205918827948 ], [ 107.61454796756243, 13.535530707244206 ], [ 107.382727492301086, 14.202440904186972 ], [ 107.564525181103903, 15.202173163305559 ], [ 107.312705926545604, 15.908538316303179 ], [ 106.556007928495688, 16.604283962464805 ], [ 105.925762160264028, 17.485315456608959 ], [ 105.094598423281525, 18.66697459561108 ], [ 103.896532017026715, 19.265180975821806 ], [ 104.183387892678937, 19.624668077060221 ], [ 104.822573683697101, 19.886641750563882 ], [ 104.435000441508052, 20.758733221921531 ], [ 103.203861118586445, 20.766562201413748 ], [ 102.754896274834664, 21.675137233969465 ], [ 102.170435825613581, 22.464753119389304 ], [ 102.706992222100098, 22.708795070887675 ], [ 103.50451460166056, 22.703756618739209 ], [ 104.476858351664475, 22.819150092046968 ], [ 105.329209425886631, 23.352063300056912 ], [ 105.811247186305224, 22.976892401617903 ], [ 106.725403273548466, 22.794267889898421 ], [ 106.567273390735323, 22.218204860924772 ], [ 107.043420037872636, 21.811898912029914 ], [ 108.050180291782937, 21.552379869060118 ], [ 106.715067987090094, 20.696850694252021 ], [ 105.881682163519031, 19.752050482659698 ], [ 105.662005649846307, 19.05816518806057 ], [ 106.42681684776602, 18.004120998603227 ], [ 107.361953566519745, 16.697456569887052 ], [ 108.269495070429628, 16.079742336486149 ], [ 108.877106561317476, 15.27669057867044 ], [ 109.335269810017223, 13.426028347217724 ], [ 109.200135939573983, 11.666859239137764 ], [ 108.366129998815452, 11.008320624226272 ], [ 107.220928582795239, 10.364483954301832 ], [ 106.405112746203429, 9.530839748569321 ], [ 105.15826378786511, 8.599759629750494 ], [ 104.795185174582386, 9.241038316276502 ], [ 105.076201613385621, 9.918490505406808 ], [ 104.334334751403475, 10.48654368737523 ] ] ] } },
{ "type": "Feature", "properties": { "ADMIN": "North Korea" }, "geometry": { "type": "MultiPolygon", "coordinates": [ [ [ [ 130.780003660046759, 42.220007813203225 ], [ 130.780004853585126, 42.220010361082579 ], [ 130.78000735893113, 42.22000722916885 ], [ 130.780003660046759, 42.220007813203225 ] ] ], [ [ [ 130.639999706909549, 42.395024275221793 ], [ 130.6400000000001, 42.395 ], [ 130.77999231657833, 42.220009604277188 ], [ 130.400030552289024, 42.280003567059708 ], [ 129.965948521037262, 41.94136790625106 ], [ 129.667362095254816, 41.601104437825228 ], [ 129.705189243692473, 40.882827867184332 ], [ 129.188114862179987, 40.661807766271991 ], [ 129.010399611528214, 40.485436102859815 ], [ 128.63336836152672, 40.189846910150308 ], [ 127.96741417858135, 40.025412502597561 ], [ 127.533435500194173, 39.756850083976701 ], [ 127.502119582225305, 39.323930772451533 ], [ 127.385434198110275, 39.213472398427655 ], [ 127.783342726757724, 39.050898342437421 ], [ 128.349716424676615, 38.61224294692785 ], [ 128.205745884311455, 38.370397243801889 ], [ 127.780035435091008, 38.304535630845891 ], [ 127.07330854706737, 38.2561148137884 ], [ 126.683719924018931, 37.804772854151182 ], [ 126.237338901881756, 37.840377916000278 ], [ 126.174758742376241, 37.74968577732804 ], [ 125.689103631697208, 37.940010077459021 ], [ 125.568439162295704, 37.752088731429623 ], [ 125.275330438336198, 37.669070542952724 ], [ 125.240087111513162, 37.857224432927438 ], [ 124.981033156433966, 37.94882090916478 ], [ 124.71216067921938, 38.10834605564979 ], [ 124.985994093933982, 38.54847422947968 ], [ 125.221948683778706, 38.665857245430672 ], [ 125.132858514507518, 38.848559271798592 ], [ 125.386589797060594, 39.387957872061165 ], [ 125.321115757346817, 39.55138458918421 ], [ 124.737482131042398, 39.660344346671621 ], [ 124.265624627785314, 39.928493353834156 ], [ 125.079941847840644, 40.569823716792449 ], [ 126.18204511932943, 41.107336127276369 ], [ 126.869083286649868, 41.81656932226619 ], [ 127.343782993683021, 41.503151760415967 ], [ 128.208433058790661, 41.466771552082491 ], [ 128.05221520397231, 41.994284572917948 ], [ 129.596668735879518, 42.424981797854556 ], [ 129.994267205933227, 42.985386867843786 ], [ 130.639999706909549, 42.395024275221793 ] ] ] ] } },
{ "type": "Feature", "properties": { "ADMIN": "South Korea" }, "geometry": { "type": "Polygon", "coordinates": [ [ [ 126.174758742376241, 37.74968577732804 ], [ 126.237338901881756, 37.840377916000278 ], [ 126.683719924018931, 37.804772854151182 ], [ 127.07330854706737, 38.2561148137884 ], [ 127.780035435091008, 38.304535630845891 ], [ 128.205745884311455, 38.370397243801889 ], [ 128.349716424676615, 38.61224294692785 ], [ 129.212919549680066, 37.432392483055949 ], [ 129.460449660358165, 36.784189154602828 ], [ 129.4683044780665, 35.632140611303953 ], [ 129.091376580929591, 35.082484239231434 ], [ 128.185850457879098, 34.890377102186392 ], [ 127.386519403188402, 34.475673733044118 ], [ 126.485747511908755, 34.39004588473648 ], [ 126.373919712429142, 34.934560451795946 ], [ 126.559231398627787, 35.684540513647903 ], [ 126.117397902532289, 36.725484727519259 ], [ 126.860143263863392, 36.893924058574626 ], [ 126.174758742376241, 37.74968577732804 ] ] ] } },
{ "type": "Feature", "properties": { "ADMIN": "China" }, "geometry": { "type": "MultiPolygon", "coordinates": [ [ [ [ 109.475209588663645, 18.197700913968575 ], [ 108.655207961056163, 18.507681993071387 ], [ 108.62621748254044, 19.367887885001906 ], [ 109.119055617308035, 19.821038519769345 ], [ 110.211598748822809, 20.101253973872033 ], [ 110.786550734502214, 20.077534491450052 ], [ 111.010051304164577, 19.695929877190721 ], [ 110.570646600386766, 19.255879218009269 ], [ 110.339187860151469, 18.678395087147592 ], [ 109.475209588663645, 18.197700913968575 ] ] ], [ [ [ 80.259990268885304, 42.349999294599058 ], [ 80.180150180994303, 42.920067857426943 ], [ 80.866206496101256, 43.180362046881008 ], [ 79.966106398441411, 44.917516994804629 ], [ 81.947070753918098, 45.317027492853121 ], [ 82.458925815769064, 45.539649563166506 ], [ 83.180483839860472, 47.330031236350862 ], [ 85.164290399113241, 47.000955715516099 ], [ 85.720483839870667, 47.452969468773105 ], [ 85.768232863308299, 48.455750637396989 ], [ 86.598776483103364, 48.549181626980626 ], [ 87.35997033076265, 49.214980780629119 ], [ 87.751264276076711, 49.297197984405486 ], [ 88.013832228551735, 48.599462795600616 ], [ 88.854297723346761, 48.069081732772965 ], [ 90.280825636763922, 47.69354909930793 ], [ 90.970809360725013, 46.88814606382293 ], [ 90.585768263718279, 45.719716091487527 ], [ 90.945539585334302, 45.286073309910279 ], [ 92.133890822318222, 45.115075995456458 ], [ 93.480733677141302, 44.975472113619965 ], [ 94.688928664125328, 44.352331854828421 ], [ 95.306875441471533, 44.241330878265472 ], [ 95.762454868556688, 43.319449164394605 ], [ 96.349395786527808, 42.725635280928685 ], [ 97.451757440178014, 42.74888967546002 ], [ 99.515817498780038, 42.524691473961724 ], [ 100.845865513108265, 42.663804429691453 ], [ 101.833040399179936, 42.514872951826277 ], [ 103.312278273534815, 41.907468166667599 ], [ 104.522281935648991, 41.908346666016556 ], [ 104.964993931093474, 41.597409572916348 ], [ 106.129315627061686, 42.134327704428912 ], [ 107.744772576937947, 42.481515814781872 ], [ 109.243595819131457, 42.5194463160841 ], [ 110.412103306115284, 42.871233628911028 ], [ 111.129682244920232, 43.40683401140015 ], [ 111.82958784388137, 43.743118394539522 ], [ 111.66773725794323, 44.073175767587713 ], [ 111.348376906379457, 44.45744171811009 ], [ 111.873306105600307, 45.102079372735062 ], [ 112.436062453258813, 45.011645616224293 ], [ 113.463906691544167, 44.808893134127118 ], [ 114.460331658996068, 45.339816799493825 ], [ 115.985096470200091, 45.727235012386004 ], [ 116.717868280098855, 46.388202419615212 ], [ 117.421701287914189, 46.67273285581426 ], [ 118.874325799638726, 46.805412095723653 ], [ 119.663269891438759, 46.692679958678923 ], [ 119.772823927897505, 47.048058783550132 ], [ 118.866574334794947, 47.747060044946167 ], [ 118.064142694166719, 48.066730455103688 ], [ 117.29550744025741, 47.697709052107427 ], [ 116.308952671373234, 47.85341014260284 ], [ 115.742837355615791, 47.726544501326288 ], [ 115.485282017073061, 48.135382595403442 ], [ 116.191802199367572, 49.134598090199106 ], [ 116.678800897286123, 49.888531399121405 ], [ 117.879244419426399, 49.510983384796965 ], [ 119.288460728025797, 50.142882798862004 ], [ 119.27939, 50.58292 ], [ 120.182080000000155, 51.643550000000118 ], [ 120.7382, 51.96411 ], [ 120.725789015791975, 52.516226304730935 ], [ 120.177088657716808, 52.753886216841238 ], [ 121.003084751470169, 53.251401068731191 ], [ 122.24574791879283, 53.431725979213695 ], [ 123.57147, 53.4588 ], [ 125.068211297710377, 53.16104482686886 ], [ 125.946348911646169, 52.792798570356979 ], [ 126.564399041856973, 51.784255479532703 ], [ 126.939156528837657, 51.353894151405918 ], [ 127.287455682484847, 50.739797268265477 ], [ 127.65740000000028, 49.760270000000105 ], [ 129.397817824420429, 49.440600084015443 ], [ 130.582293328982416, 48.72968740497614 ], [ 130.987260000000106, 47.79013 ], [ 132.50669, 47.78896 ], [ 133.373595819227944, 48.183441677434871 ], [ 135.026311476786645, 48.478229885443874 ], [ 134.50081, 47.57845 ], [ 134.112350000000106, 47.21248 ], [ 133.76964399631288, 46.116926988299014 ], [ 133.097120000000132, 45.14409 ], [ 131.883454217659505, 45.321161607436522 ], [ 131.02519000000018, 44.96796 ], [ 131.28855512911548, 44.11151968034828 ], [ 131.144687941614905, 42.92998973242689 ], [ 130.633866408409745, 42.903014634770528 ], [ 130.639999706909549, 42.395024275221793 ], [ 129.994267205933227, 42.985386867843786 ], [ 129.596668735879518, 42.424981797854556 ], [ 128.05221520397231, 41.994284572917948 ], [ 128.208433058790661, 41.466771552082491 ], [ 127.343782993683021, 41.503151760415967 ], [ 126.869083286649868, 41.81656932226619 ], [ 126.18204511932943, 41.107336127276369 ], [ 125.079941847840644, 40.569823716792449 ], [ 124.265624627785314, 39.928493353834156 ], [ 122.867570428560953, 39.63778758397622 ], [ 122.131387974130902, 39.170451768544666 ], [ 121.054554478032856, 38.897471014962846 ], [ 121.58599490772248, 39.360853583324072 ], [ 121.376757033372684, 39.750261338859488 ], [ 122.168595005381064, 40.422442531896024 ], [ 121.640358514493528, 40.946389878903332 ], [ 120.76862877816194, 40.593388169917539 ], [ 119.63960208544907, 39.898055935214245 ], [ 119.023463983233057, 39.252333075511146 ], [ 118.042748651197911, 39.204273993479703 ], [ 117.532702264477109, 38.737635809884083 ], [ 118.059698520989642, 38.061475531561058 ], [ 118.878149855628322, 37.897325344385933 ], [ 118.911636183753444, 37.448463853498708 ], [ 119.702802362142052, 37.156388658185051 ], [ 120.823457472823605, 37.870427761378011 ], [ 121.711258579597995, 37.48112335870718 ], [ 122.35793745329849, 37.454484157860719 ], [ 122.5199947449658, 36.93061432550185 ], [ 121.104163853033072, 36.651329047180425 ], [ 120.637008905114527, 36.111439520811075 ], [ 119.664561802246055, 35.609790554337721 ], [ 119.151208123858595, 34.909859117160437 ], [ 120.227524855633732, 34.360331936168649 ], [ 120.620369093916551, 33.376722723925141 ], [ 121.229014113450233, 32.460318711877193 ], [ 121.90814578663003, 31.692174384074647 ], [ 121.891919386890379, 30.949351508095106 ], [ 121.264257440273283, 30.676267401648701 ], [ 121.503519321784665, 30.142914943964289 ], [ 122.0921138855891, 29.832520453403149 ], [ 121.938428175953064, 29.018022365834781 ], [ 121.684438511238511, 28.225512600206617 ], [ 121.125661248866493, 28.135673122667185 ], [ 120.395473260582321, 27.053206895449321 ], [ 119.585496860839498, 25.740780544532612 ], [ 118.656871372554519, 24.547390855400241 ], [ 117.281606479970876, 23.624501451099658 ], [ 115.890735304835118, 22.78287323657807 ], [ 114.763827345846238, 22.668074042241667 ], [ 114.152546828265642, 22.22376007739615 ], [ 113.806779819800738, 22.548339748621402 ], [ 113.241077915501592, 22.051367499270455 ], [ 111.843592157032475, 21.550493679281473 ], [ 110.785465529424073, 21.397143866455338 ], [ 110.444039341271676, 20.341032619706329 ], [ 109.889861281373612, 20.282457383703488 ], [ 109.627655063924664, 21.008227037026703 ], [ 109.864488153118316, 21.395050970947523 ], [ 108.522812941524407, 21.715212307211814 ], [ 108.050180291782937, 21.552379869060118 ], [ 107.043420037872636, 21.811898912029914 ], [ 106.567273390735323, 22.218204860924772 ], [ 106.725403273548466, 22.794267889898421 ], [ 105.811247186305224, 22.976892401617903 ], [ 105.329209425886631, 23.352063300056912 ], [ 104.476858351664475, 22.819150092046968 ], [ 103.50451460166056, 22.703756618739209 ], [ 102.706992222100098, 22.708795070887675 ], [ 102.170435825613581, 22.464753119389304 ], [ 101.652017856861519, 22.318198757409547 ], [ 101.803119744882935, 21.174366766845068 ], [ 101.270025669359967, 21.201651923095184 ], [ 101.180005324307544, 21.436572984294028 ], [ 101.15003299357825, 21.849984442629022 ], [ 100.416537713627378, 21.558839423096614 ], [ 99.983489211021492, 21.742936713136402 ], [ 99.240898878987252, 22.118314317304581 ], [ 99.531992222087396, 22.949038804612581 ], [ 98.898749220782776, 23.142722072842531 ], [ 98.660262485755766, 24.063286037689966 ], [ 97.604719679761985, 23.897404690033042 ], [ 97.724609002679145, 25.083637193293001 ], [ 98.671838006589155, 25.918702500913525 ], [ 98.712093947344513, 26.743535874940267 ], [ 98.682690057370465, 27.508812160750619 ], [ 98.246230910233294, 27.747221381129179 ], [ 97.911987746169444, 28.335945136014345 ], [ 97.327113885490036, 28.261582749946339 ], [ 96.248833449287787, 28.411030992134442 ], [ 96.586590610747493, 28.83097951915434 ], [ 96.117678664131034, 29.452802028922466 ], [ 95.40480228066464, 29.031716620392132 ], [ 94.565990431702943, 29.277438055939985 ], [ 93.413347609432691, 28.640629380807226 ], [ 92.503118931043645, 27.896876329046449 ], [ 91.696656528696678, 27.771741848251665 ], [ 91.258853794319919, 28.040614325466294 ], [ 90.730513950567797, 28.064953925075756 ], [ 90.015828891971182, 28.296438503527217 ], [ 89.475810174521115, 28.042758897406397 ], [ 88.814248488320558, 27.299315904239364 ], [ 88.730325962278556, 28.086864732367516 ], [ 88.12044070836987, 27.876541652939594 ], [ 86.954517043000607, 27.974261786403517 ], [ 85.823319940131512, 28.203575954698707 ], [ 85.011638218123039, 28.642773952747344 ], [ 84.23457970575015, 28.839893703724698 ], [ 83.898992954446726, 29.320226141877658 ], [ 83.33711510613719, 29.463731594352197 ], [ 82.327512648450877, 30.115268052688137 ], [ 81.525804477874743, 30.422716986608631 ], [ 81.111256138029319, 30.183480943313402 ], [ 79.721366815107103, 30.882714748654731 ], [ 78.738894484374015, 31.515906073527063 ], [ 78.458446486326011, 32.618164374312727 ], [ 79.17612877799553, 32.483779812137712 ], [ 79.208891636068586, 32.994394639613716 ], [ 78.811086460285736, 33.506198025032418 ], [ 78.912268914713223, 34.321936346975789 ], [ 77.837450799474567, 35.494009507787766 ], [ 76.192848341785691, 35.898403428687828 ], [ 75.89689741405013, 36.666806138651836 ], [ 75.158027785140916, 37.133030910789117 ], [ 74.980002475895418, 37.419990139305895 ], [ 74.829985792952101, 37.990007025701402 ], [ 74.864815708316826, 38.378846340481601 ], [ 74.257514276022732, 38.606506862943448 ], [ 73.928852166646436, 38.505815334622739 ], [ 73.675379266254794, 39.431236884105601 ], [ 73.960013055318427, 39.660008449861735 ], [ 73.822243686828301, 39.893973497063186 ], [ 74.776862420556057, 40.366425279291633 ], [ 75.467827996730705, 40.56207225194867 ], [ 76.526368035797447, 40.427946071935118 ], [ 76.904484490877081, 41.066485907549648 ], [ 78.187196893225973, 41.185315863604806 ], [ 78.54366092317531, 41.582242540038692 ], [ 80.119430373051387, 42.123940741538249 ], [ 80.259990268885304, 42.349999294599058 ] ] ] ] } },
{ "type": "Feature", "properties": { "ADMIN": "Taiwan" }, "geometry": { "type": "Polygon", "coordinates": [ [ [ 121.777817824389928, 24.3942735865194 ], [ 121.175632358892742, 22.790857245367167 ], [ 120.747079705896226, 21.970571397382113 ], [ 120.220083449383679, 22.814860948166739 ], [ 120.106188592612398, 23.556262722258236 ], [ 120.694679803552248, 24.538450832613737 ], [ 121.495044386888779, 25.295458889257386 ], [ 121.951243931161457, 24.997595933527037 ], [ 121.777817824389928, 24.3942735865194 ] ] ] } },
{ "type": "Feature", "properties": { "ADMIN": "Philippines" }, "geometry": { "type": "MultiPolygon", "coordinates": [ [ [ [ 120.833896112146562, 12.704496161342433 ], [ 120.323436313967449, 13.466413479053825 ], [ 121.180128208502111, 13.429697373910443 ], [ 121.527393833503496, 13.069590155484519 ], [ 121.262190382981586, 12.205560207564403 ], [ 120.833896112146562, 12.704496161342433 ] ] ], [ [ [ 122.5860889018671, 9.981044826696134 ], [ 122.837081333508749, 10.261156927934225 ], [ 122.947410516451896, 10.881868394408061 ], [ 123.498849725438447, 10.94062449792392 ], [ 123.337774285984722, 10.267383938025404 ], [ 124.077935825701203, 11.232725531453738 ], [ 123.98243777882584, 10.278778591345755 ], [ 123.623183221532713, 9.950090643753299 ], [ 123.309920688979389, 9.318268744336706 ], [ 122.995883009941664, 9.022188625520414 ], [ 122.38005496631942, 9.713360907424217 ], [ 122.5860889018671, 9.981044826696134 ] ] ], [ [ [ 126.376813592637447, 8.414706325713297 ], [ 126.478512811387887, 7.750354112168978 ], [ 126.537423944200611, 7.189380601424545 ], [ 126.196772902532587, 6.274294338400054 ], [ 125.831420526229067, 7.293715318221842 ], [ 125.363852166852212, 6.786485297060949 ], [ 125.683160841983693, 6.049656887227272 ], [ 125.396511672060626, 5.581003322772276 ], [ 124.219787632342388, 6.161355495626154 ], [ 123.938719517106904, 6.885135606306136 ], [ 124.243662144061275, 7.360610459823661 ], [ 123.610212437027485, 7.83352732994274 ], [ 123.29607140512519, 7.418875637232759 ], [ 122.825505812675374, 7.457374579290204 ], [ 122.085499302255727, 6.899424139834836 ], [ 121.91992801319256, 7.192119452336015 ], [ 122.312358840017055, 8.034962063016465 ], [ 122.942397902519588, 8.316236883981134 ], [ 123.487687616063468, 8.69300975182118 ], [ 123.841154412939829, 8.240324204944372 ], [ 124.601469761250215, 8.514157619659002 ], [ 124.764612257995623, 8.960409450715488 ], [ 125.471390822451554, 8.986996975129657 ], [ 125.412117954612768, 9.760334784377534 ], [ 126.2227144715431, 9.286074327018866 ], [ 126.306636997585144, 8.782487494334561 ], [ 126.376813592637447, 8.414706325713297 ] ] ], [ [ [ 118.504580926590364, 9.316382554558047 ], [ 117.174274530100661, 8.367499904814679 ], [ 117.664477166821371, 9.066888739452892 ], [ 118.38691369026175, 9.684499619989211 ], [ 118.98734215706105, 10.376292019080523 ], [ 119.511496209797514, 11.3696680770272 ], [ 119.689676548339889, 10.554291490109875 ], [ 119.029458449378922, 10.003653265823829 ], [ 118.504580926590364, 9.316382554558047 ] ] ], [ [ [ 122.336956821787993, 18.224882717354106 ], [ 122.174279412933174, 17.810282701076403 ], [ 122.515653924653293, 17.093504746971973 ], [ 122.252310825693925, 16.262444362854069 ], [ 121.662786086108213, 15.931017564350142 ], [ 121.505069614753424, 15.124813544164622 ], [ 121.728828566577207, 14.328376369682275 ], [ 122.258925409027256, 14.218202216035991 ], [ 122.701275669445693, 14.336541245984378 ], [ 123.950295037940293, 13.782130642141027 ], [ 123.85510704965867, 13.237771104378425 ], [ 124.18128869028493, 12.997527370653501 ], [ 124.077419061378293, 12.536676947474575 ], [ 123.298035109552245, 13.02752553959894 ], [ 122.928651971529945, 13.552919826710422 ], [ 122.671355015148706, 13.185836289925092 ], [ 122.034649692880521, 13.784481919810304 ], [ 121.126384718918573, 13.636687323455547 ], [ 120.62863732308324, 13.857655747935596 ], [ 120.679383579593861, 14.271015529838294 ], [ 120.991819289230534, 14.52539276779504 ], [ 120.693336216312673, 14.756670640517312 ], [ 120.56414513558299, 14.396279201713796 ], [ 120.070428501466438, 14.970869452367126 ], [ 119.920928582846045, 15.406346747290739 ], [ 119.88377322802819, 16.363704331929995 ], [ 120.286487664878749, 16.034628811095345 ], [ 120.390047235191673, 17.599081122299523 ], [ 120.715867140791914, 18.505227362537525 ], [ 121.321308221523509, 18.504064642810945 ], [ 121.937601353036399, 18.218552354398355 ], [ 122.246006300954292, 18.478949896717097 ], [ 122.336956821787993, 18.224882717354106 ] ] ], [ [ [ 122.038370396005547, 11.415840969279998 ], [ 121.883547804859091, 11.891755072471994 ], [ 122.483821242361486, 11.582187404827538 ], [ 123.120216506035945, 11.583660183147856 ], [ 123.100837843926456, 11.16593374271649 ], [ 122.637713657726692, 10.74130849857417 ], [ 122.002610304859573, 10.441016750526089 ], [ 121.967366978036523, 10.905691229694625 ], [ 122.038370396005547, 11.415840969279998 ] ] ], [ [ [ 125.502551711123544, 12.162694606978292 ], [ 125.783464797062209, 11.046121934447783 ], [ 125.01188398651226, 11.311454576050409 ], [ 125.032761265158172, 10.975816148314692 ], [ 125.277449172060187, 10.358722032101284 ], [ 124.801819289245771, 10.134678859899864 ], [ 124.760168084818531, 10.837995103392258 ], [ 124.459101190286049, 10.889929917845592 ], [ 124.302521600441708, 11.495370998577187 ], [ 124.891012811381529, 11.415582587118536 ], [ 124.877990350444009, 11.794189968304947 ], [ 124.266761509295691, 12.557760931849671 ], [ 125.227116327007877, 12.53572093347718 ], [ 125.502551711123544, 12.162694606978292 ] ] ] ] } },
{ "type": "Feature", "properties": { "ADMIN": "Japan" }, "geometry": { "type": "MultiPolygon", "coordinates": [ [ [ [ 141.884600864834965, 39.180864569651476 ], [ 140.959489373945814, 38.174000962876619 ], [ 140.976387567305267, 37.142074286440192 ], [ 140.599769728762112, 36.343983466124499 ], [ 140.774074334882584, 35.842877102190215 ], [ 140.2532792502451, 35.138113918593646 ], [ 138.975527785396196, 34.667600002576137 ], [ 137.217598911691255, 34.606285915661829 ], [ 135.792983026268928, 33.464805202766627 ], [ 135.120982700745401, 33.849071153289003 ], [ 135.07943484918269, 34.596544908174806 ], [ 133.340316196832021, 34.375938218720805 ], [ 132.15677086805124, 33.904933376596517 ], [ 130.986144647343451, 33.885761420216241 ], [ 132.000036248909964, 33.149992377244544 ], [ 131.33279015515734, 31.450354519164822 ], [ 130.686317987185987, 31.029579169228246 ], [ 130.202419875204896, 31.418237616495432 ], [ 130.447676222862128, 32.319474595665696 ], [ 129.814691603718927, 32.610309556604363 ], [ 129.408463169472554, 33.296055813117519 ], [ 130.353935174684636, 33.604150702441672 ], [ 130.878450962447175, 34.232742824840017 ], [ 131.884229364143891, 34.749713853487918 ], [ 132.617672967662429, 35.433393052709405 ], [ 134.608300815977714, 35.731617743465804 ], [ 135.677537876528845, 35.527134100886869 ], [ 136.723830601142424, 37.304984239240326 ], [ 137.390611607004473, 36.82739065199884 ], [ 138.85760216690619, 37.827484646143461 ], [ 139.426404657142825, 38.215962225897613 ], [ 140.054790073812001, 39.43880748143637 ], [ 139.883379347899847, 40.563312486323682 ], [ 140.305782505453635, 41.195005194659529 ], [ 141.36897342342661, 41.378559882160275 ], [ 141.914263136970476, 39.991616115878685 ], [ 141.884600864834965, 39.180864569651476 ] ] ], [ [ [ 144.613426548439634, 43.960882880217483 ], [ 145.320825230083074, 44.384732977875409 ], [ 145.543137241802697, 43.262088324550618 ], [ 144.059661899999867, 42.988358262700558 ], [ 143.183849725517234, 41.995214748699198 ], [ 141.6114909201724, 42.6787905950561 ], [ 141.067286411706675, 41.584593817707969 ], [ 139.955106235920994, 41.56955597591103 ], [ 139.81754357315998, 42.563758856774385 ], [ 140.312087030193254, 43.333272610032687 ], [ 141.380548944259999, 43.388824774746439 ], [ 141.671952345953855, 44.772125352551463 ], [ 141.967644891527982, 45.551483466161343 ], [ 143.142870314709739, 44.510358384776971 ], [ 143.910161981379474, 44.174099839853739 ], [ 144.613426548439634, 43.960882880217483 ] ] ], [ [ [ 132.371176385630235, 33.463642483040061 ], [ 132.924372593314729, 34.060298570282043 ], [ 133.492968377822194, 33.944620876596673 ], [ 133.904106073136347, 34.364931138642632 ], [ 134.638428176003856, 34.149233710256354 ], [ 134.766379022358535, 33.806334743783623 ], [ 134.203415968970887, 33.201177883429636 ], [ 133.792950067276536, 33.521985175097598 ], [ 133.280268182508848, 33.289570420864891 ], [ 133.014858026257798, 32.704567369104737 ], [ 132.363114862192674, 32.989382025681394 ], [ 132.371176385630235, 33.463642483040061 ] ] ] ] } }
]
}
